NORAD_CAT_ID,OBJECT_NAME,OBJECT_TYPE,EPOCH,MEAN_MOTION,ECCENTRICITY,INCLINATION,RA_OF_ASC_NODE,ARG_OF_PERICENTER,MEAN_ANOMALY,BSTAR,MEAN_MOTION_DOT,MEAN_MOTION_DDOT,TLE_LINE0,TLE_LINE1,TLE_LINE2,SEMIMAJOR_AXIS,PERIOD,APOGEE,PERIGEE,DECAYED
56781.0,STARLINK-5989,PAYLOAD,2023-12-14 02:48:30,14.98331799,0.0002145,69.9994,243.3975,284.6881,75.404,1.9396e-05,1.39e-06,0.0,0 STARLINK-5989,1 56781U 23078Q   23348.11702213  .00000139  00000-0  19396-4 0  9999,2 56781  69.9994 243.3975 0002145 284.6881  75.4040 14.98331799 30363,6950.187,96.107,573.543,570.562,0.0
56781.0,STARLINK-5989,PAYLOAD,2023-12-14 20:25:59,14.98332017,0.0002304,69.9995,241.5465,259.8053,100.2847,7.1114e-06,-8e-08,0.0,0 STARLINK-5989,1 56781U 23078Q   23348.85137947 -.00000008  00000-0  71114-5 0  9999,2 56781  69.9995 241.5465 0002304 259.8053 100.2847 14.98332017 30737,6950.187,96.107,573.653,570.45,0.0
56781.0,STARLINK-5989,PAYLOAD,2023-12-14 22:02:07,14.98331547,0.0002346,69.9993,241.378,261.6751,98.4142,1.9655e-05,1.42e-06,0.0,0 STARLINK-5989,1 56781U 23078Q   23348.91813930  .00000142  00000-0  19655-4 0  9998,2 56781  69.9993 241.3780 0002346 261.6751  98.4142 14.98331547 30480,6950.188,96.107,573.684,570.423,0.0
56781.0,STARLINK-5989,PAYLOAD,2023-12-15 02:50:31,14.98333352,0.0002234,69.9996,240.8737,257.8883,102.2026,2.5228e-05,2.08e-06,0.0,0 STARLINK-5989,1 56781U 23078Q   23349.11841760  .00000208  00000-0  25228-4 0  9999,2 56781  69.9996 240.8737 0002234 257.8883 102.2026 14.98333352 30513,6950.183,96.107,573.6,570.495,0.0
56781.0,STARLINK-5989,PAYLOAD,2023-12-15 20:28:00,14.98323876,0.0002165,69.9998,239.0227,251.6063,108.4861,-2.3644e-05,-3.75e-06,0.0,0 STARLINK-5989,1 56781U 23078Q   23349.85278526 -.00000375  00000-0 -23644-4 0  9991,2 56781  69.9998 239.0227 0002165 251.6063 108.4861 14.98323876 30889,6950.212,96.107,573.582,570.572,0.0
56781.0,STARLINK-5989,PAYLOAD,2023-12-15 22:04:08,14.98326323,0.000227,70.0,238.8564,250.99,109.1014,-2.3576e-05,-3.74e-06,0.0,0 STARLINK-5989,1 56781U 23078Q   23349.91954457 -.00000374  00000-0 -23576-4 0  9995,2 56781  70.0000 238.8564 0002270 250.9900 109.1014 14.98326323 30637,6950.204,96.107,573.647,570.492,0.0
56781.0,STARLINK-5989,PAYLOAD,2023-12-16 02:52:33,14.98322278,0.0002183,69.9998,238.3495,257.0477,103.0439,-2.903e-05,-4.39e-06,0.0,0 STARLINK-5989,1 56781U 23078Q   23350.11982756 -.00000439  00000-0 -29030-4 0  9995,2 56781  69.9998 238.3495 0002183 257.0477 103.0439 14.98322278 30660,6950.217,96.107,573.599,570.565,0.0
56781.0,STARLINK-5989,PAYLOAD,2023-12-16 20:30:01,14.98334205,0.0002218,69.9993,236.4969,262.8874,97.2033,1.395e-05,7.4e-07,0.0,0 STARLINK-5989,1 56781U 23078Q   23350.85417914  .00000074  00000-0  13950-4 0  9992,2 56781  69.9993 236.4969 0002218 262.8874  97.2033 14.98334205 31033,6950.18,96.107,573.586,570.503,0.0
56781.0,STARLINK-5989,PAYLOAD,2023-12-17 02:54:33,14.98335012,0.0002206,69.9994,235.8237,265.4891,94.6016,2.3644e-05,1.89e-06,0.0,0 STARLINK-5989,1 56781U 23078Q   23351.12121776  .00000189  00000-0  23644-4 0  9999,2 56781  69.9994 235.8237 0002206 265.4891  94.6016 14.98335012 30814,6950.177,96.107,573.576,570.509,0.0
56781.0,STARLINK-5989,PAYLOAD,2023-12-17 20:32:01,14.9833009,0.0002202,69.9993,233.9715,270.1446,89.9461,8.6287e-05,9.37e-06,0.0,0 STARLINK-5989,1 56781U 23078Q   23351.85557817  .00000937  00000-0  86287-4 0  9991,2 56781  69.9993 233.9715 0002202 270.1446  89.9461 14.98330090 31181,6950.193,96.107,573.588,570.527,0.0
56781.0,STARLINK-5989,PAYLOAD,2023-12-17 22:08:10,14.98330521,0.000223,69.9997,233.8034,272.2833,87.8071,8.6826e-05,9.43e-06,0.0,0 STARLINK-5989,1 56781U 23078Q   23351.92233802  .00000943  00000-0  86826-4 0  9990,2 56781  69.9997 233.8034 0002230 272.2833  87.8071 14.98330521 30937,6950.191,96.107,573.606,570.506,0.0
56781.0,STARLINK-5989,PAYLOAD,2023-12-18 01:20:25,14.98334443,0.0002172,69.9996,233.4666,274.8446,85.2465,0.00010859,1.203e-05,0.0,0 STARLINK-5989,1 56781U 23078Q   23352.05585470  .00001203  00000-0  10859-3 0  9998,2 56781  69.9996 233.4666 0002172 274.8446  85.2465 14.98334443 30954,6950.179,96.107,573.554,570.535,0.0
56781.0,STARLINK-5989,PAYLOAD,2023-12-18 22:10:11,14.98327621,0.0002179,69.9998,231.2795,247.3934,112.6995,-8.0794e-05,-1.057e-05,0.0,0 STARLINK-5989,1 56781U 23078Q   23352.92374326 -.00001057  00000-0 -80794-4 0  9995,2 56781  69.9998 231.2795 0002179 247.3934 112.6995 14.98327621 31087,6950.2,96.107,573.58,570.551,0.0
56781.0,STARLINK-5989,PAYLOAD,2023-12-19 01:22:27,14.98326786,0.000215,70.0,230.9434,242.9389,117.1551,-8.099e-05,-1.059e-05,0.0,0 STARLINK-5989,1 56781U 23078Q   23353.05726366 -.00001059  00000-0 -80990-4 0  9995,2 56781  70.0000 230.9434 0002150 242.9389 117.1551 14.98326786 31364,6950.203,96.107,573.562,570.574,0.0
56781.0,STARLINK-5989,PAYLOAD,2023-12-20 01:24:28,14.98326219,0.000196,69.9997,228.4176,251.0449,109.0498,-6.9785e-05,-9.25e-06,0.0,0 STARLINK-5989,1 56781U 23078Q   23354.05866572 -.00000925  00000-0 -69785-4 0  9990,2 56781  69.9997 228.4176 0001960 251.0449 109.0498 14.98326219 31515,6950.205,96.107,573.432,570.707,0.0
56781.0,STARLINK-5989,PAYLOAD,2023-12-20 19:01:56,14.9833135,0.0002245,69.9989,226.5653,251.9789,108.1126,0.00011089,1.23e-05,0.0,0 STARLINK-5989,1 56781U 23078Q   23354.79301720  .00001230  00000-0  11089-3 0  9991,2 56781  69.9989 226.5653 0002245 251.9789 108.1126 14.98331350 31620,6950.189,96.107,573.614,570.493,0.0
56781.0,STARLINK-5989,PAYLOAD,2023-12-20 22:14:12,14.9833186,0.0002238,69.999,226.229,251.6206,108.4709,0.00011323,1.258e-05,0.0,0 STARLINK-5989,1 56781U 23078Q   23354.92653677  .00001258  00000-0  11323-3 0  9998,2 56781  69.9990 226.2290 0002238 251.6206 108.4709 14.98331860 31388,6950.187,96.107,573.608,570.497,0.0
56781.0,STARLINK-5989,PAYLOAD,2023-12-21 01:26:28,14.98333484,0.0002229,69.999,225.8923,251.1688,108.9229,0.00012716,1.425e-05,0.0,0 STARLINK-5989,1 56781U 23078Q   23355.06005514  .00001425  00000-0  12716-3 0  9998,2 56781  69.9990 225.8923 0002229 251.1688 108.9229 14.98333484 31404,6950.182,96.107,573.596,570.498,0.0
56781.0,STARLINK-5989,PAYLOAD,2023-12-21 22:16:14,14.98327708,0.0002176,69.9992,223.7043,249.5672,110.5253,2.7501e-05,2.35e-06,0.0,0 STARLINK-5989,1 56781U 23078Q   23355.92794136  .00000235  00000-0  27501-4 0  9995,2 56781  69.9992 223.7043 0002176 249.5672 110.5253 14.98327708 31533,6950.2,96.107,573.577,570.553,0.0
56781.0,STARLINK-5989,PAYLOAD,2023-12-22 01:28:30,14.98327522,0.0002187,69.9991,223.3674,253.2162,106.8757,2.1589e-05,1.65e-06,0.0,0 STARLINK-5989,1 56781U 23078Q   23356.06146183  .00000165  00000-0  21589-4 0  9996,2 56781  69.9991 223.3674 0002187 253.2162 106.8757 14.98327522 31818,6950.201,96.107,573.586,570.546,0.0
56781.0,STARLINK-5989,PAYLOAD,2023-12-22 19:05:58,14.98337289,0.0002178,69.999,221.5152,255.7703,104.3214,-2.6586e-05,-4.1e-06,0.0,0 STARLINK-5989,1 56781U 23078Q   23356.79581572 -.00000410  00000-0 -26586-4 0  9998,2 56781  69.9990 221.5152 0002178 255.7703 104.3214 14.98337289 31920,6950.17,96.107,573.549,570.522,0.0
56781.0,STARLINK-5989,PAYLOAD,2023-12-22 22:18:14,14.98337062,0.0002177,69.999,221.1785,255.9834,104.1084,-2.7045e-05,-4.16e-06,0.0,0 STARLINK-5989,1 56781U 23078Q   23356.92933527 -.00000416  00000-0 -27045-4 0  9991,2 56781  69.9990 221.1785 0002177 255.9834 104.1084 14.98337062 31689,6950.171,96.107,573.549,570.523,0.0
56781.0,STARLINK-5989,PAYLOAD,2023-12-23 14:19:35,14.98327513,0.0002116,69.9991,219.4955,257.9922,102.1,-4.8663e-06,-1.51e-06,0.0,0 STARLINK-5989,1 56781U 23078Q   23357.59693910 -.00000151  00000-0 -48663-5 0  9990,2 56781  69.9991 219.4955 0002116 257.9922 102.1000 14.98327513 31789,6950.201,96.107,573.536,570.595,0.0
56781.0,STARLINK-5989,PAYLOAD,2023-12-23 19:07:59,14.9832855,0.0002126,69.9991,218.9908,255.8995,104.1928,5.0488e-06,-3.3e-07,0.0,0 STARLINK-5989,1 56781U 23078Q   23357.79721813 -.00000033  00000-0  50488-5 0  9992,2 56781  69.9991 218.9908 0002126 255.8995 104.1928 14.98328550 32075,6950.197,96.107,573.54,570.585,0.0
56781.0,STARLINK-5989,PAYLOAD,2023-12-23 22:20:15,14.98325151,0.0002118,69.9991,218.6542,260.9214,99.1705,4.0719e-05,3.93e-06,0.0,0 STARLINK-5989,1 56781U 23078Q   23357.93073958  .00000393  00000-0  40719-4 0  9991,2 56781  69.9991 218.6542 0002118 260.9214  99.1705 14.98325151 31831,6950.208,96.107,573.545,570.601,0.0
56781.0,STARLINK-5989,PAYLOAD,2023-12-23 23:56:23,14.98327928,0.0002133,69.9991,218.4859,256.4094,103.6828,-3.5564e-06,-1.35e-06,0.0,0 STARLINK-5989,1 56781U 23078Q   23357.99749894 -.00000135  00000-0 -35564-5 0  9995,2 56781  69.9991 218.4859 0002133 256.4094 103.6828 14.98327928 31845,6950.199,96.107,573.547,570.582,0.0
56781.0,STARLINK-5989,PAYLOAD,2023-12-24 19:10:00,14.98331476,0.0002145,69.9992,216.4662,245.92,114.1735,-1.2593e-05,-2.43e-06,0.0,0 STARLINK-5989,1 56781U 23078Q   23358.79861612 -.00000243  00000-0 -12593-4 0  9993,2 56781  69.9992 216.4662 0002145 245.9200 114.1735 14.98331476 32221,6950.188,96.107,573.544,570.563,0.0
56781.0,STARLINK-5989,PAYLOAD,2023-12-24 22:22:16,14.98331009,0.0002315,69.9992,216.1294,255.71,104.3802,2.7521e-05,2.35e-06,0.0,0 STARLINK-5989,1 56781U 23078Q   23358.93213519  .00000235  00000-0  27521-4 0  9992,2 56781  69.9992 216.1294 0002315 255.7100 104.3802 14.98331009 31986,6950.19,96.107,573.664,570.446,0.0
56781.0,STARLINK-5989,PAYLOAD,2023-12-24 23:58:24,14.98332708,0.0002204,69.9992,215.9612,254.392,105.6996,-5.0609e-06,-1.53e-06,0.0,0 STARLINK-5989,1 56781U 23078Q   23358.99889500 -.00000153  00000-0 -50609-5 0  9992,2 56781  69.9992 215.9612 0002204 254.3920 105.6996 14.98332708 31995,6950.185,96.107,573.581,570.518,0.0
56781.0,STARLINK-5989,PAYLOAD,2023-12-25 19:12:01,14.98327332,0.0002207,69.9993,213.9413,253.4961,106.5956,-2.7753e-07,-9.6e-07,0.0,0 STARLINK-5989,1 56781U 23078Q   23359.80001828 -.00000096  00000-0 -27753-6 0  9993,2 56781  69.9993 213.9413 0002207 253.4961 106.5956 14.98327332 32377,6950.201,96.107,573.6,570.532,0.0
